{"type": "FeatureCollection", "features": [{"type": "Feature", "properties": {"norad_id": 24876, "name": "GPS BIIR-2  (PRN 13)", "group": "gps-ops", "lat": -50.591546419227654, "lon": 50.0877602528735, "alt_km": 20336.270225018914, "timestamp": "2025-12-21T14:40:48.175357+00:00", "meta": {"OBJECT_NAME": "GPS BIIR-2  (PRN 13)", "OBJECT_ID": "1997-035A", "EPOCH": "2025-12-21T05:00:18.122112", "MEAN_MOTION": 2.00563754, "ECCENTRICITY": 0.00968202, "INCLINATION": 55.8993, "RA_OF_ASC_NODE": 105.5377, "ARG_OF_PERICENTER": 56.9664, "MEAN_ANOMALY": 303.9402, "EPHEMERIS_TYPE": 0, "CLASSIFICATION_TYPE": "U", "NORAD_CAT_ID": 24876, "ELEMENT_SET_NO": 999, "REV_AT_EPOCH": 20838, "BSTAR": 0, "MEAN_MOTION_DOT": 2e-08, "MEAN_MOTION_DDOT": 0}, "tle": {"line1": "1 24876U 97035A   25355.20854308  .00000002  00000+0  00000+0 0  9991", "line2": "2 24876  55.8993 105.5377 0096820  56.9664 303.9402  2.00563754208381"}}, "geometry": {"type": "Point", "coordinates": [50.0877602528735, -50.591546419227654]}}, {"type": "Feature", "properties": {"norad_id": 26360, "name": "GPS BIIR-4  (PRN 20)", "group": "gps-ops", "lat": 19.674117870851603, "lon": 40.97152703181378, "alt_km": 20260.411837129428, "timestamp": "2025-12-21T14:40:48.175384+00:00", "meta": {"OBJECT_NAME": "GPS BIIR-4  (PRN 20)", "OBJECT_ID": "2000-025A", "EPOCH": "2025-12-21T05:19:14.670912", "MEAN_MOTION": 2.0056705, "ECCENTRICITY": 0.0038897, "INCLINATION": 55.0502, "RA_OF_ASC_NODE": 26.4949, "ARG_OF_PERICENTER": 242.7827, "MEAN_ANOMALY": 219.6694, "EPHEMERIS_TYPE": 0, "CLASSIFICATION_TYPE": "U", "NORAD_CAT_ID": 26360, "ELEMENT_SET_NO": 999, "REV_AT_EPOCH": 18770, "BSTAR": 0, "MEAN_MOTION_DOT": -6.2e-07, "MEAN_MOTION_DDOT": 0}, "tle": {"line1": "1 26360U 00025A   25355.22169758 -.00000062  00000+0  00000+0 0  9991", "line2": "2 26360  55.0502  26.4949 0038897 242.7827 219.6694  2.00567050187702"}}, "geometry": {"type": "Point", "coordinates": [40.97152703181378, 19.674117870851603]}}, {"type": "Feature", "properties": {"norad_id": 26407, "name": "GPS BIIR-5  (PRN 22)", "group": "gps-ops", "lat": -33.35591430487714, "lon": 69.81105514542675, "alt_km": 20122.833544145757, "timestamp": "2025-12-21T14:40:48.175401+00:00", "meta": {"OBJECT_NAME": "GPS BIIR-5  (PRN 22)", "OBJECT_ID": "2000-040A", "EPOCH": "2025-12-21T01:01:32.979648", "MEAN_MOTION": 2.00568107, "ECCENTRICITY": 0.01255563, "INCLINATION": 54.889, "RA_OF_ASC_NODE": 222.2388, "ARG_OF_PERICENTER": 301.9496, "MEAN_ANOMALY": 230.9465, "EPHEMERIS_TYPE": 0, "CLASSIFICATION_TYPE": "U", "NORAD_CAT_ID": 26407, "ELEMENT_SET_NO": 999, "REV_AT_EPOCH": 18637, "BSTAR": 0, "MEAN_MOTION_DOT": 7.2e-07, "MEAN_MOTION_DDOT": 0}, "tle": {"line1": "1 26407U 00040A   25355.04274282  .00000072  00000+0  00000+0 0  9999", "line2": "2 26407  54.8890 222.2388 0125556 301.9496 230.9465  2.00568107186371"}}, "geometry": {"type": "Point", "coordinates": [69.81105514542675, -33.35591430487714]}}, {"type": "Feature", "properties": {"norad_id": 27663, "name": "GPS BIIR-8  (PRN 16)", "group": "gps-ops", "lat": -1.4614635610834945, "lon": -138.98762083646406, "alt_km": 19945.59665050491, "timestamp": "2025-12-21T14:40:48.175416+00:00", "meta": {"OBJECT_NAME": "GPS BIIR-8  (PRN 16)", "OBJECT_ID": "2003-005A", "EPOCH": "2025-12-20T15:07:28.763328", "MEAN_MOTION": 2.00570507, "ECCENTRICITY": 0.0147742, "INCLINATION": 54.9216, "RA_OF_ASC_NODE": 222.0644, "ARG_OF_PERICENTER": 51.9121, "MEAN_ANOMALY": 319.0535, "EPHEMERIS_TYPE": 0, "CLASSIFICATION_TYPE": "U", "NORAD_CAT_ID": 27663, "ELEMENT_SET_NO": 999, "REV_AT_EPOCH": 16773, "BSTAR": 0, "MEAN_MOTION_DOT": 7.3e-07, "MEAN_MOTION_DDOT": 0}, "tle": {"line1": "1 27663U 03005A   25354.63019402  .00000073  00000+0  00000+0 0  9994", "line2": "2 27663  54.9216 222.0644 0147742  51.9121 319.0535  2.00570507167733"}}, "geometry": {"type": "Point", "coordinates": [-138.98762083646406, -1.4614635610834945]}}, {"type": "Feature", "properties": {"norad_id": 28190, "name": "GPS BIIR-11 (PRN 19)", "group": "gps-ops", "lat": 17.97443527586047, "lon": 89.71861977462154, "alt_km": 19896.069414956553, "timestamp": "2025-12-21T14:40:48.175429+00:00", "meta": {"OBJECT_NAME": "GPS BIIR-11 (PRN 19)", "OBJECT_ID": "2004-009A", "EPOCH": "2025-12-20T02:10:39.105696", "MEAN_MOTION": 2.00560582, "ECCENTRICITY": 0.01084506, "INCLINATION": 54.979, "RA_OF_ASC_NODE": 282.9228, "ARG_OF_PERICENTER": 167.7566, "MEAN_ANOMALY": 332.1268, "EPHEMERIS_TYPE": 0, "CLASSIFICATION_TYPE": "U", "NORAD_CAT_ID": 28190, "ELEMENT_SET_NO": 999, "REV_AT_EPOCH": 15935, "BSTAR": 0, "MEAN_MOTION_DOT": -3.4e-07, "MEAN_MOTION_DDOT": 0}, "tle": {"line1": "1 28190U 04009A   25354.09073039 -.00000034  00000+0  00000+0 0  9999", "line2": "2 28190  54.9790 282.9228 0108450 167.7566 332.1268  2.00560582159351"}}, "geometry": {"type": "Point", "coordinates": [89.71861977462154, 17.97443527586047]}}, {"type": "Feature", "properties": {"norad_id": 28474, "name": "GPS BIIR-13 (PRN 02)", "group": "gps-ops", "lat": -29.26514790261126, "lon": 174.92859072288155, "alt_km": 20201.737253596104, "timestamp": "2025-12-21T14:40:48.175441+00:00", "meta": {"OBJECT_NAME": "GPS BIIR-13 (PRN 02)", "OBJECT_ID": "2004-045A", "EPOCH": "2025-12-20T07:31:09.755904", "MEAN_MOTION": 2.00569954, "ECCENTRICITY": 0.01709047, "INCLINATION": 55.2369, "RA_OF_ASC_NODE": 332.1012, "ARG_OF_PERICENTER": 309.5849, "MEAN_ANOMALY": 51.3395, "EPHEMERIS_TYPE": 0, "CLASSIFICATION_TYPE": "U", "NORAD_CAT_ID": 28474, "ELEMENT_SET_NO": 999, "REV_AT_EPOCH": 15484, "BSTAR": 0, "MEAN_MOTION_DOT": -7.7e-07, "MEAN_MOTION_DDOT": 0}, "tle": {"line1": "1 28474U 04045A   25354.31330736 -.00000077  00000+0  00000+0 0  9996", "line2": "2 28474  55.2369 332.1012 0170904 309.5849  51.3395  2.00569954154846"}}, "geometry": {"type": "Point", "coordinates": [174.92859072288155, -29.26514790261126]}}, {"type": "Feature", "properties": {"norad_id": 28874, "name": "GPS BIIRM-1 (PRN 17)", "group": "gps-ops", "lat": 3.0391572955443897, "lon": 98.2055916265764, "alt_km": 20338.927552930287, "timestamp": "2025-12-21T14:40:48.175453+00:00", "meta": {"OBJECT_NAME": "GPS BIIRM-1 (PRN 17)", "OBJECT_ID": "2005-038A", "EPOCH": "2025-12-21T00:50:49.977024", "MEAN_MOTION": 2.00577927, "ECCENTRICITY": 0.01313807, "INCLINATION": 55.0245, "RA_OF_ASC_NODE": 280.367, "ARG_OF_PERICENTER": 293.7438, "MEAN_ANOMALY": 187.6731, "EPHEMERIS_TYPE": 0, "CLASSIFICATION_TYPE": "U", "NORAD_CAT_ID": 28874, "ELEMENT_SET_NO": 999, "REV_AT_EPOCH": 14826, "BSTAR": 0, "MEAN_MOTION_DOT": -2.4e-07, "MEAN_MOTION_DDOT": 0}, "tle": {"line1": "1 28874U 05038A   25355.03530066 -.00000024  00000+0  00000+0 0  9993", "line2": "2 28874  55.0245 280.3670 0131380 293.7438 187.6731  2.00577927148263"}}, "geometry": {"type": "Point", "coordinates": [98.2055916265764, 3.0391572955443897]}}, {"type": "Feature", "properties": {"norad_id": 29486, "name": "GPS BIIRM-2 (PRN 31)", "group": "gps-ops", "lat": 53.59959365592033, "lon": -127.57969490973412, "alt_km": 19925.750716642044, "timestamp": "2025-12-21T14:40:48.175465+00:00", "meta": {"OBJECT_NAME": "GPS BIIRM-2 (PRN 31)", "OBJECT_ID": "2006-042A", "EPOCH": "2025-12-21T07:20:25.573056", "MEAN_MOTION": 2.00553833, "ECCENTRICITY": 0.01072923, "INCLINATION": 54.6951, "RA_OF_ASC_NODE": 158.401, "ARG_OF_PERICENTER": 52.1572, "MEAN_ANOMALY": 167.0314, "EPHEMERIS_TYPE": 0, "CLASSIFICATION_TYPE": "U", "NORAD_CAT_ID": 29486, "ELEMENT_SET_NO": 999, "REV_AT_EPOCH": 14082, "BSTAR": 0, "MEAN_MOTION_DOT": 7e-07, "MEAN_MOTION_DDOT": 0}, "tle": {"line1": "1 29486U 06042A   25355.30585154  .00000070  00000+0  00000+0 0  9997", "line2": "2 29486  54.6951 158.4010 0107292  52.1572 167.0314  2.00553833140829"}}, "geometry": {"type": "Point", "coordinates": [-127.57969490973412, 53.59959365592033]}}, {"type": "Feature", "properties": {"norad_id": 29601, "name": "GPS BIIRM-3 (PRN 12)", "group": "gps-ops", "lat": 32.475032769530856, "lon": 14.550383399097672, "alt_km": 20030.63394342401, "timestamp": "2025-12-21T14:40:48.175476+00:00", "meta": {"OBJECT_NAME": "GPS BIIRM-3 (PRN 12)", "OBJECT_ID": "2006-052A", "EPOCH": "2025-12-20T22:09:19.493856", "MEAN_MOTION": 2.00574173, "ECCENTRICITY": 0.00879992, "INCLINATION": 54.9689, "RA_OF_ASC_NODE": 221.0734, "ARG_OF_PERICENTER": 87.5315, "MEAN_ANOMALY": 273.5726, "EPHEMERIS_TYPE": 0, "CLASSIFICATION_TYPE": "U", "NORAD_CAT_ID": 29601, "ELEMENT_SET_NO": 999, "REV_AT_EPOCH": 13983, "BSTAR": 0, "MEAN_MOTION_DOT": 7.4e-07, "MEAN_MOTION_DDOT": 0}, "tle": {"line1": "1 29601U 06052A   25354.92314229  .00000074  00000+0  00000+0 0  9991", "line2": "2 29601  54.9689 221.0734 0087999  87.5315 273.5726  2.00574173139836"}}, "geometry": {"type": "Point", "coordinates": [14.550383399097672, 32.475032769530856]}}, {"type": "Feature", "properties": {"norad_id": 32260, "name": "GPS BIIRM-4 (PRN 15)", "group": "gps-ops", "lat": -53.3026726177736, "lon": 10.142794895880968, "alt_km": 20612.844412639333, "timestamp": "2025-12-21T14:40:48.175488+00:00", "meta": {"OBJECT_NAME": "GPS BIIRM-4 (PRN 15)", "OBJECT_ID": "2007-047A", "EPOCH": "2025-12-19T17:36:20.095488", "MEAN_MOTION": 2.00564284, "ECCENTRICITY": 0.01640625, "INCLINATION": 53.9598, "RA_OF_ASC_NODE": 87.4696, "ARG_OF_PERICENTER": 85.3303, "MEAN_ANOMALY": 276.5412, "EPHEMERIS_TYPE": 0, "CLASSIFICATION_TYPE": "U", "NORAD_CAT_ID": 32260, "ELEMENT_SET_NO": 999, "REV_AT_EPOCH": 13321, "BSTAR": 0, "MEAN_MOTION_DOT": -3.5e-07, "MEAN_MOTION_DDOT": 0}, "tle": {"line1": "1 32260U 07047A   25353.73356592 -.00000035  00000+0  00000+0 0  9996", "line2": "2 32260  53.9598  87.4696 0164062  85.3303 276.5412  2.00564284133213"}}, "geometry": {"type": "Point", "coordinates": [10.142794895880968, -53.3026726177736]}}]}